0 CZ-4 DEB
1 20883U 90081AT  13282.34050038  .00001127  00000-0  50663-3 0  6887
2 20883 098.6348 311.6023 0014288 301.4123 123.5297 14.24256709188831
0 CZ-4 DEB
1 20883U 90081AT  13283.82007153  .00001084  00000-0  48805-3 0  6899
2 20883 098.6345 313.0563 0014277 296.7671 150.1112 14.24259920189049
0 CZ-4 DEB
1 20883U 90081AT  13285.99778314  .00001127  00000-0  50696-3 0  6915
2 20883 098.6340 315.1966 0014265 289.9362 156.4763 14.24263879189355
0 CZ-4 DEB
1 20883U 90081AT  13287.03863424  .00001240  00000-0  55548-3 0  6927
2 20883 098.6337 316.2196 0014285 286.6393 093.5566 14.24266110189508
0 CZ-4 DEB
1 20883U 90081AT  13288.10124003  .00001661  00000-0  73790-3 0  6936
2 20883 098.6334 317.2637 0014274 283.2904 142.1782 14.24271311189651
0 CZ-4 DEB
1 20883U 90081AT  13289.58665413  .00001414  00000-0  63066-3 0  6946
2 20883 098.6331 318.7232 0014318 278.6497 198.7816 14.24275798189860
0 CZ-4 DEB
1 20883U 90081AT  13291.04297440  .00001328  00000-0  59374-3 0  6953
2 20883 098.6329 320.1541 0014356 274.0792 106.2479 14.24279665190078
0 CZ-4 DEB
1 20883U 90081AT  13292.10603619  .00001389  00000-0  61987-3 0  6961
2 20883 098.6329 321.1986 0014371 270.7773 157.2115 14.24281969190221
0 CZ-4 DEB
1 20883U 90081AT  13293.53041487  .00001475  00000-0  65688-3 0  6977
2 20883 098.6329 322.5979 0014395 266.3239 260.9122 14.24286172190425
0 CZ-4 DEB
1 20883U 90081AT  13294.64392762  .00001427  00000-0  63636-3 0  6984
2 20883 098.6329 323.6919 0014435 262.8859 210.5729 14.24290023190586
0 CZ-4 DEB
1 20883U 90081AT  13296.03945318  .00001552  00000-0  69036-3 0  6990
2 20883 098.6329 325.0630 0014482 258.5790 166.3041 14.24294109190786
